{
"type": "FeatureCollection",
"name": "paths_new",
"crs": { "type": "name", "properties": { "name": "urn:ogc:def:crs:OGC:1.3:CRS84" } },
"features": [
{ "type": "Feature", "properties": { "fid": 1, "start": "50.635087, 26.303694", "end": "50.631761, 26.300536", "cost": 0.0051262490561836682, "id": null, "start_id": null, "start_coordinates": null, "start_entry_cost": null, "end_id": null, "end_coordinates": null, "end_exit_cost": null, "cost_on_graph": null, "total_cost": null, "layer": "1", "path": "C:\\Users\\Lenovo\\Desktop\\project\\1.geojson", "length_km": 0.57065143461386525 }, "geometry": { "type": "MultiLineString", "coordinates": [ [ [ 50.635097869221575, 26.303693024240339 ], [ 50.6350967, 26.30368 ], [ 50.6350647, 26.3036231 ], [ 50.6350068, 26.3035737 ], [ 50.6349566, 26.30355 ], [ 50.6348577, 26.3035503 ], [ 50.6348574, 26.3034667 ], [ 50.6347231, 26.303472 ], [ 50.6343594, 26.3034968 ], [ 50.633983, 26.3035659 ], [ 50.6337475, 26.3036288 ], [ 50.6334913, 26.3036212 ], [ 50.6334444, 26.3036153 ], [ 50.6334087, 26.3036055 ], [ 50.6333739, 26.3035781 ], [ 50.6333518, 26.3035538 ], [ 50.6333119, 26.3034981 ], [ 50.6332767, 26.3033258 ], [ 50.6332269, 26.3031353 ], [ 50.6331578, 26.3028644 ], [ 50.6330686, 26.3026055 ], [ 50.632954, 26.3023344 ], [ 50.6328799, 26.3021575 ], [ 50.6328048, 26.3020114 ], [ 50.632558, 26.3015998 ], [ 50.6324492, 26.3014481 ], [ 50.632009, 26.3008347 ], [ 50.631780148509456, 26.300521986639875 ] ] ] } },
{ "type": "Feature", "properties": { "fid": 1, "start": "50.635117, 26.30366", "end": "50.636475, 26.298051", "cost": 0.0068924410453633303, "id": null, "start_id": null, "start_coordinates": null, "start_entry_cost": null, "end_id": null, "end_coordinates": null, "end_exit_cost": null, "cost_on_graph": null, "total_cost": null, "layer": "2", "path": "C:\\Users\\Lenovo\\Desktop\\project\\2.geojson", "length_km": 0.76726302749250419 }, "geometry": { "type": "MultiLineString", "coordinates": [ [ [ 50.635117060419105, 26.303679938301759 ], [ 50.6350967, 26.30368 ], [ 50.6350821, 26.3035417 ], [ 50.6350742, 26.3034612 ], [ 50.6349507, 26.3034608 ], [ 50.6349517, 26.3033476 ], [ 50.634963, 26.3031847 ], [ 50.6349896, 26.3030224 ], [ 50.6350442, 26.3028212 ], [ 50.6351113, 26.3026391 ], [ 50.635243, 26.3023428 ], [ 50.6353177, 26.302174 ], [ 50.6354335, 26.3019532 ], [ 50.6355974, 26.3017241 ], [ 50.6358434, 26.3013546 ], [ 50.6360581, 26.3010811 ], [ 50.6362753, 26.3008243 ], [ 50.636498, 26.300589 ], [ 50.6367396, 26.3003399 ], [ 50.6370807, 26.300038 ], [ 50.6373334, 26.2998239 ], [ 50.6375238, 26.299678 ], [ 50.637556, 26.2996502 ], [ 50.637585, 26.2996198 ], [ 50.6376107, 26.2995871 ], [ 50.6376325, 26.2995523 ], [ 50.6376333, 26.2995223 ], [ 50.6376121, 26.2994596 ], [ 50.6375812, 26.2993999 ], [ 50.6375418, 26.2993445 ], [ 50.6373326, 26.29909 ], [ 50.6371149, 26.2988152 ], [ 50.6370692, 26.2987522 ], [ 50.6369355, 26.298568 ], [ 50.6368896, 26.2985048 ], [ 50.6367789, 26.2983542 ], [ 50.6366195, 26.2981082 ], [ 50.6365162, 26.2980138 ], [ 50.636507891349964, 26.298007515412078 ] ] ] } },
{ "type": "Feature", "properties": { "fid": 1, "start": "50.620343, 26.307264", "end": "50.624146, 26.304897", "cost": 0.004299052521702324, "id": null, "start_id": null, "start_coordinates": null, "start_entry_cost": null, "end_id": null, "end_coordinates": null, "end_exit_cost": null, "cost_on_graph": null, "total_cost": null, "layer": "3", "path": "C:\\Users\\Lenovo\\Desktop\\project\\3.geojson", "length_km": 0.4785683376094414 }, "geometry": { "type": "MultiLineString", "coordinates": [ [ [ 50.620315435987806, 26.307284304252921 ], [ 50.6203021, 26.3072662 ], [ 50.6202965, 26.3072266 ], [ 50.6202947, 26.3071867 ], [ 50.6202968, 26.3071468 ], [ 50.6203085, 26.3070832 ], [ 50.6203301, 26.3070218 ], [ 50.621742, 26.3061797 ], [ 50.6231887, 26.3053533 ], [ 50.6232791, 26.3053202 ], [ 50.6233382, 26.3052899 ], [ 50.6233967, 26.3052586 ], [ 50.624120711959932, 26.304851973775982 ] ] ] } },
{ "type": "Feature", "properties": { "fid": 1, "start": "50.639625, 26.305322", "end": "50.622941, 26.310748", "cost": 0.017915578638948697, "id": null, "start_id": null, "start_coordinates": null, "start_entry_cost": null, "end_id": null, "end_coordinates": null, "end_exit_cost": null, "cost_on_graph": null, "total_cost": null, "layer": "4", "path": "C:\\Users\\Lenovo\\Desktop\\project\\4.geojson", "length_km": 1.9943530913546186 }, "geometry": { "type": "MultiLineString", "coordinates": [ [ [ 50.639648252245316, 26.305329694086556 ], [ 50.6397275, 26.3050902 ], [ 50.6395742, 26.3050269 ], [ 50.639465, 26.3049808 ], [ 50.6390598, 26.3048017 ], [ 50.6386664, 26.3046015 ], [ 50.6382502, 26.3043916 ], [ 50.6378572, 26.3042128 ], [ 50.6375888, 26.3041209 ], [ 50.637541, 26.3041076 ], [ 50.6373231, 26.304032 ], [ 50.6368549, 26.3038965 ], [ 50.6362228, 26.3037601 ], [ 50.6357688, 26.3037075 ], [ 50.6356049, 26.3036969 ], [ 50.6352982, 26.3036772 ], [ 50.6351957, 26.3036797 ], [ 50.6350967, 26.30368 ], [ 50.6349655, 26.3036845 ], [ 50.6348582, 26.3036889 ], [ 50.6347525, 26.3036923 ], [ 50.6345179, 26.3037092 ], [ 50.6343169, 26.3037285 ], [ 50.6339819, 26.3037777 ], [ 50.6334789, 26.3038963 ], [ 50.6332458, 26.3039707 ], [ 50.6331304, 26.3040075 ], [ 50.632875, 26.304108 ], [ 50.6328037, 26.3041339 ], [ 50.6325865, 26.3042308 ], [ 50.6324652, 26.3042942 ], [ 50.6320459, 26.3045368 ], [ 50.6318942, 26.3046246 ], [ 50.6316322, 26.3047733 ], [ 50.6312285, 26.3050036 ], [ 50.630222, 26.3055746 ], [ 50.6292272, 26.3061794 ], [ 50.6288672, 26.3063874 ], [ 50.6287279, 26.3064679 ], [ 50.6285782, 26.3065518 ], [ 50.6284725, 26.3066107 ], [ 50.6277204, 26.3070658 ], [ 50.627253, 26.3073161 ], [ 50.6268109, 26.3075768 ], [ 50.6263472, 26.3078317 ], [ 50.6258397, 26.3081338 ], [ 50.6253594, 26.308441 ], [ 50.6249384, 26.3087763 ], [ 50.6242781, 26.3093924 ], [ 50.6237596, 26.3099331 ], [ 50.6233232, 26.3103946 ], [ 50.6230296, 26.3106711 ], [ 50.6229716, 26.3107279 ], [ 50.622948057820288, 26.310754294998432 ] ] ] } },
{ "type": "Feature", "properties": { "fid": 1, "start": "50.639625, 26.305322", "end": "50.622941, 26.310748", "cost": 0.017915578638948697, "id": null, "start_id": null, "start_coordinates": null, "start_entry_cost": null, "end_id": null, "end_coordinates": null, "end_exit_cost": null, "cost_on_graph": null, "total_cost": null, "layer": "5", "path": "C:/Users/Lenovo/Desktop/project/5.geojson", "length_km": 1.9943530913546186 }, "geometry": { "type": "MultiLineString", "coordinates": [ [ [ 50.639648252245316, 26.305329694086556 ], [ 50.6397275, 26.3050902 ], [ 50.6395742, 26.3050269 ], [ 50.639465, 26.3049808 ], [ 50.6390598, 26.3048017 ], [ 50.6386664, 26.3046015 ], [ 50.6382502, 26.3043916 ], [ 50.6378572, 26.3042128 ], [ 50.6375888, 26.3041209 ], [ 50.637541, 26.3041076 ], [ 50.6373231, 26.304032 ], [ 50.6368549, 26.3038965 ], [ 50.6362228, 26.3037601 ], [ 50.6357688, 26.3037075 ], [ 50.6356049, 26.3036969 ], [ 50.6352982, 26.3036772 ], [ 50.6351957, 26.3036797 ], [ 50.6350967, 26.30368 ], [ 50.6349655, 26.3036845 ], [ 50.6348582, 26.3036889 ], [ 50.6347525, 26.3036923 ], [ 50.6345179, 26.3037092 ], [ 50.6343169, 26.3037285 ], [ 50.6339819, 26.3037777 ], [ 50.6334789, 26.3038963 ], [ 50.6332458, 26.3039707 ], [ 50.6331304, 26.3040075 ], [ 50.632875, 26.304108 ], [ 50.6328037, 26.3041339 ], [ 50.6325865, 26.3042308 ], [ 50.6324652, 26.3042942 ], [ 50.6320459, 26.3045368 ], [ 50.6318942, 26.3046246 ], [ 50.6316322, 26.3047733 ], [ 50.6312285, 26.3050036 ], [ 50.630222, 26.3055746 ], [ 50.6292272, 26.3061794 ], [ 50.6288672, 26.3063874 ], [ 50.6287279, 26.3064679 ], [ 50.6285782, 26.3065518 ], [ 50.6284725, 26.3066107 ], [ 50.6277204, 26.3070658 ], [ 50.627253, 26.3073161 ], [ 50.6268109, 26.3075768 ], [ 50.6263472, 26.3078317 ], [ 50.6258397, 26.3081338 ], [ 50.6253594, 26.308441 ], [ 50.6249384, 26.3087763 ], [ 50.6242781, 26.3093924 ], [ 50.6237596, 26.3099331 ], [ 50.6233232, 26.3103946 ], [ 50.6230296, 26.3106711 ], [ 50.6229716, 26.3107279 ], [ 50.622948057820288, 26.310754294998432 ] ] ] } },
{ "type": "Feature", "properties": { "fid": 1, "start": "50.62297, 26.310712", "end": "50.620994, 26.312792", "cost": 0.0027854084756364817, "id": null, "start_id": null, "start_coordinates": null, "start_entry_cost": null, "end_id": null, "end_coordinates": null, "end_exit_cost": null, "cost_on_graph": null, "total_cost": null, "layer": "6", "path": "C:\\Users\\Lenovo\\Desktop\\project\\6.geojson", "length_km": 0.31007025315912151 }, "geometry": { "type": "MultiLineString", "coordinates": [ [ [ 50.622962864638716, 26.310720884099194 ], [ 50.6229716, 26.3107279 ], [ 50.62288, 26.3108306 ], [ 50.6228114, 26.31089 ], [ 50.6225044, 26.3111556 ], [ 50.622194, 26.3114242 ], [ 50.6217767, 26.3117997 ], [ 50.6212631, 26.3122813 ], [ 50.6210927, 26.3124546 ], [ 50.62102, 26.3125433 ], [ 50.6209745, 26.3126409 ], [ 50.6209935, 26.3127154 ], [ 50.620983098367631, 26.312790489879426 ] ] ] } },
{ "type": "Feature", "properties": { "fid": 1, "start": "50.631855, 26.315363", "end": "50.620348, 26.307247", "cost": 0.014580278142974402, "id": null, "start_id": null, "start_coordinates": null, "start_entry_cost": null, "end_id": null, "end_coordinates": null, "end_exit_cost": null, "cost_on_graph": null, "total_cost": null, "layer": "7", "path": "C:\\Users\\Lenovo\\Desktop\\project\\7.geojson", "length_km": 1.623069138500207 }, "geometry": { "type": "MultiLineString", "coordinates": [ [ [ 50.631859208300327, 26.315364684195035 ], [ 50.6319709, 26.3150856 ], [ 50.631672, 26.3155494 ], [ 50.6315754, 26.3156143 ], [ 50.6314681, 26.3156287 ], [ 50.6313743, 26.3156047 ], [ 50.6303699, 26.315175 ], [ 50.630134, 26.315073 ], [ 50.6294398, 26.314781 ], [ 50.6294385, 26.3147525 ], [ 50.6294305, 26.3147249 ], [ 50.6294164, 26.3146994 ], [ 50.6293887, 26.3146701 ], [ 50.629353, 26.3146489 ], [ 50.6293122, 26.3146374 ], [ 50.6292694, 26.3146365 ], [ 50.6292313, 26.314645 ], [ 50.6291969, 26.314662 ], [ 50.6291684, 26.3146862 ], [ 50.6276219, 26.3140178 ], [ 50.6274517, 26.3139449 ], [ 50.6272635, 26.3138779 ], [ 50.6271917, 26.3138524 ], [ 50.6270528, 26.3137908 ], [ 50.6269314, 26.313737 ], [ 50.6266163, 26.3135972 ], [ 50.6264301, 26.3135063 ], [ 50.626277, 26.313414 ], [ 50.6261336, 26.3133269 ], [ 50.6259798, 26.3132265 ], [ 50.6259318, 26.3131951 ], [ 50.6257673, 26.3130694 ], [ 50.6254959, 26.3128567 ], [ 50.6249521, 26.312414 ], [ 50.6248632, 26.3123336 ], [ 50.6247953, 26.3122679 ], [ 50.6247442, 26.312187 ], [ 50.6247464, 26.3121393 ], [ 50.6247308, 26.3120938 ], [ 50.6246997, 26.3120573 ], [ 50.6246575, 26.3120319 ], [ 50.6245899, 26.3120163 ], [ 50.6245559, 26.312024 ], [ 50.6245199, 26.3120049 ], [ 50.6244917, 26.3119898 ], [ 50.6244502, 26.3119596 ], [ 50.6243145, 26.3118585 ], [ 50.6240683, 26.3116531 ], [ 50.6236144, 26.3112899 ], [ 50.6232526, 26.3109872 ], [ 50.6230335, 26.3107855 ], [ 50.6229716, 26.3107279 ], [ 50.622902, 26.310672 ], [ 50.6227853, 26.3105993 ], [ 50.622716, 26.3105388 ], [ 50.6226349, 26.3104681 ], [ 50.6225034, 26.3103373 ], [ 50.6224026, 26.3102175 ], [ 50.6216425, 26.309159 ], [ 50.6216132, 26.3091134 ], [ 50.6215892, 26.3090733 ], [ 50.6215704, 26.3090418 ], [ 50.621536, 26.3089667 ], [ 50.6215105, 26.3088887 ], [ 50.6215219, 26.3088506 ], [ 50.6215235, 26.3088104 ], [ 50.6215136, 26.3087711 ], [ 50.6214927, 26.3087355 ], [ 50.621466, 26.3087088 ], [ 50.6214332, 26.3086883 ], [ 50.621396, 26.3086751 ], [ 50.6213564, 26.3086699 ], [ 50.6212986, 26.3086322 ], [ 50.6212563, 26.3085915 ], [ 50.6212248, 26.3085552 ], [ 50.6211887, 26.3085031 ], [ 50.6211307, 26.3084239 ], [ 50.6209421, 26.3081661 ], [ 50.6206929, 26.3078051 ], [ 50.6205485, 26.3076007 ], [ 50.620309076958911, 26.307275671561506 ] ] ] } },
{ "type": "Feature", "properties": { "fid": 1, "start": "50.633788, 26.313331", "end": "50.626937, 26.303346", "cost": 0.011684380136812144, "id": null, "start_id": null, "start_coordinates": null, "start_entry_cost": null, "end_id": null, "end_coordinates": null, "end_exit_cost": null, "cost_on_graph": null, "total_cost": null, "layer": "8", "path": "C:\\Users\\Lenovo\\Desktop\\project\\8.geojson", "length_km": 1.3006992470649681 }, "geometry": { "type": "MultiLineString", "coordinates": [ [ [ 50.63379647721306, 26.313345451203585 ], [ 50.6337877, 26.3133506 ], [ 50.6336784, 26.3134146 ], [ 50.6336247, 26.3133398 ], [ 50.6333372, 26.3129393 ], [ 50.6329131, 26.3123295 ], [ 50.6326149, 26.3119126 ], [ 50.6321359, 26.3112436 ], [ 50.6318758, 26.3108803 ], [ 50.6315889, 26.3104796 ], [ 50.6312676, 26.310003 ], [ 50.6312083, 26.3099089 ], [ 50.6311407, 26.3098197 ], [ 50.631069, 26.309725 ], [ 50.6310141, 26.3096516 ], [ 50.6309557, 26.3095735 ], [ 50.630685, 26.309209 ], [ 50.6298335, 26.308006 ], [ 50.6296067, 26.3076884 ], [ 50.6289501, 26.3067791 ], [ 50.6287912, 26.3065574 ], [ 50.6287279, 26.3064679 ], [ 50.6286639, 26.3063765 ], [ 50.6285828, 26.3062606 ], [ 50.6285098, 26.3061466 ], [ 50.6283207, 26.3058515 ], [ 50.62816, 26.305623 ], [ 50.6275842, 26.3048042 ], [ 50.6273568, 26.3044809 ], [ 50.627183, 26.3042336 ], [ 50.6269519, 26.303905 ], [ 50.6267831, 26.3036074 ] ] ] } },
{ "type": "Feature", "properties": { "fid": 1, "start": "50.641116, 26.311202", "end": "50.628821, 26.321719", "cost": 0.017558527901129557, "id": null, "start_id": null, "start_coordinates": null, "start_entry_cost": null, "end_id": null, "end_coordinates": null, "end_exit_cost": null, "cost_on_graph": null, "total_cost": null, "layer": "10", "path": "C:\\Users\\Lenovo\\Desktop\\project\\10.geojson", "length_km": 1.9546063850332291 }, "geometry": { "type": "MultiLineString", "coordinates": [ [ [ 50.641144622617901, 26.311174885981607 ], [ 50.6411992, 26.3112325 ], [ 50.6412802, 26.3113074 ], [ 50.6413397, 26.3114462 ], [ 50.6413605, 26.3115139 ], [ 50.641368, 26.3115839 ], [ 50.6413621, 26.3116541 ], [ 50.641323, 26.3117652 ], [ 50.6412782, 26.311836 ], [ 50.6412779, 26.3118365 ], [ 50.6412168, 26.3118975 ], [ 50.6410825, 26.3120019 ], [ 50.6409109, 26.3121173 ], [ 50.6406775, 26.3122567 ], [ 50.6404294, 26.3123829 ], [ 50.6401545, 26.3124935 ], [ 50.6398916, 26.3125859 ], [ 50.6397009, 26.3126316 ], [ 50.639528, 26.3126712 ], [ 50.6393532, 26.3127037 ], [ 50.6391769, 26.3127288 ], [ 50.6389553, 26.3127487 ], [ 50.6384539, 26.312738 ], [ 50.6380069, 26.312698 ], [ 50.6375621, 26.3126424 ], [ 50.6371242, 26.3125909 ], [ 50.6368876, 26.3125596 ], [ 50.6366495, 26.3125389 ], [ 50.6363864, 26.3125278 ], [ 50.6361537, 26.3125303 ], [ 50.635902, 26.312556 ], [ 50.6357608, 26.3125724 ], [ 50.6356203, 26.3125933 ], [ 50.6354754, 26.3126198 ], [ 50.6351414, 26.3127087 ], [ 50.6349852, 26.3127581 ], [ 50.6348308, 26.312812 ], [ 50.6346784, 26.3128701 ], [ 50.6345281, 26.3129326 ], [ 50.6342074, 26.3131044 ], [ 50.6337877, 26.3133506 ], [ 50.6336784, 26.3134146 ], [ 50.6335478, 26.3134954 ], [ 50.6334276, 26.3135763 ], [ 50.6329084, 26.313939 ], [ 50.6327067, 26.3141121 ], [ 50.6325851, 26.3142306 ], [ 50.6324686, 26.3143531 ], [ 50.6323573, 26.3144795 ], [ 50.6322251, 26.3146473 ], [ 50.6320697, 26.3148952 ], [ 50.6319709, 26.3150856 ], [ 50.6318554, 26.3153742 ], [ 50.6317742, 26.3156443 ], [ 50.6316261, 26.3162236 ], [ 50.6316207, 26.3162517 ], [ 50.6314623, 26.3169703 ], [ 50.6314507, 26.3170333 ], [ 50.631368, 26.3173302 ], [ 50.6312671, 26.317618 ], [ 50.6311468, 26.3179052 ], [ 50.6311097, 26.3180099 ], [ 50.6309324, 26.3183893 ], [ 50.6308417, 26.3185742 ], [ 50.6307471, 26.3187576 ], [ 50.6306487, 26.3189393 ], [ 50.6305079, 26.3191797 ], [ 50.6303777, 26.3193708 ], [ 50.6302431, 26.3195593 ], [ 50.6301041, 26.3197453 ], [ 50.6299607, 26.3199286 ], [ 50.6296606, 26.3203314 ], [ 50.6295758, 26.320445 ], [ 50.6293894, 26.320657 ], [ 50.6293083, 26.3207721 ], [ 50.6292417, 26.3208944 ], [ 50.6291904, 26.3210225 ], [ 50.629144, 26.3211349 ], [ 50.6289454, 26.3215552 ], [ 50.6289146, 26.3216063 ], [ 50.6288811, 26.321646 ], [ 50.6288441, 26.3216909 ], [ 50.628821980405881, 26.321719751644508 ] ] ] } },
{ "type": "Feature", "properties": { "fid": 1, "start": "50.642051, 26.294779", "end": "50.639009, 26.291692", "cost": 0.0045286395590847022, "id": null, "start_id": null, "start_coordinates": null, "start_entry_cost": null, "end_id": null, "end_coordinates": null, "end_exit_cost": null, "cost_on_graph": null, "total_cost": null, "layer": "11", "path": "C:\\Users\\Lenovo\\Desktop\\project\\11.geojson", "length_km": 0.50412584970358398 }, "geometry": { "type": "MultiLineString", "coordinates": [ [ [ 50.642068769613132, 26.294766462535954 ], [ 50.6416528, 26.2941769 ], [ 50.6414952, 26.2939419 ], [ 50.6412302, 26.2935682 ], [ 50.6402978, 26.2922523 ], [ 50.6399335, 26.2917223 ], [ 50.6396995, 26.2915768 ], [ 50.6396132, 26.2915409 ], [ 50.6395218, 26.2915176 ], [ 50.6394274, 26.2915074 ], [ 50.6393324, 26.2915106 ], [ 50.6392391, 26.2915272 ], [ 50.6390062, 26.2916031 ], [ 50.638968839676863, 26.291625746334013 ] ] ] } },
{ "type": "Feature", "properties": { "fid": 2, "start": "888", "end": "9999", "cost": null, "id": null, "start_id": null, "start_coordinates": null, "start_entry_cost": null, "end_id": null, "end_coordinates": null, "end_exit_cost": null, "cost_on_graph": null, "total_cost": null, "layer": "11", "path": "C:\\Users\\Lenovo\\Desktop\\project\\11.geojson", "length_km": 0.21657376498620073 }, "geometry": { "type": "MultiLineString", "coordinates": [ [ [ 50.641511663963399, 26.302114825137306 ], [ 50.641409265323155, 26.302496982065318 ], [ 50.64152445991224, 26.302696504946365 ], [ 50.641610560475499, 26.302779810017018 ], [ 50.641854019773824, 26.302905279233656 ], [ 50.641865043451368, 26.303088936501933 ], [ 50.641418991608063, 26.303764512594977 ] ] ] } },
{ "type": "Feature", "properties": { "fid": 3, "start": "99", "end": "77", "cost": null, "id": null, "start_id": null, "start_coordinates": null, "start_entry_cost": null, "end_id": null, "end_coordinates": null, "end_exit_cost": null, "cost_on_graph": null, "total_cost": null, "layer": "11", "path": "C:\\Users\\Lenovo\\Desktop\\project\\11.geojson", "length_km": 0.36053378294812066 }, "geometry": { "type": "MultiLineString", "coordinates": [ [ [ 50.641404739973702, 26.303772740779912 ], [ 50.640426694016725, 26.305534553162733 ], [ 50.640103632483225, 26.30678519485831 ] ] ] } },
{ "type": "Feature", "properties": { "fid": null, "start": null, "end": null, "cost": null, "id": 333, "start_id": null, "start_coordinates": null, "start_entry_cost": null, "end_id": null, "end_coordinates": null, "end_exit_cost": null, "cost_on_graph": null, "total_cost": null, "layer": "12", "path": "C:\\Users\\Lenovo\\Desktop\\project\\12.geojson", "length_km": 1.2070578328084327 }, "geometry": { "type": "MultiLineString", "coordinates": [ [ [ 50.640137622616976, 26.306790485137093 ], [ 50.640869736697468, 26.30689542654811 ], [ 50.640940940317762, 26.306686435586617 ], [ 50.642512546498082, 26.307290002124692 ], [ 50.642853359938613, 26.306301791884355 ], [ 50.646235972582609, 26.307466639446542 ], [ 50.647051912083256, 26.30788293036899 ], [ 50.648094284029639, 26.30881603351051 ], [ 50.648262680477707, 26.30960618358867 ], [ 50.647685249399892, 26.310683038933547 ] ] ] } },
{ "type": "Feature", "properties": { "fid": null, "start": null, "end": null, "cost": null, "id": 66666, "start_id": null, "start_coordinates": null, "start_entry_cost": null, "end_id": null, "end_coordinates": null, "end_exit_cost": null, "cost_on_graph": null, "total_cost": null, "layer": "12", "path": "C:\\Users\\Lenovo\\Desktop\\project\\12.geojson", "length_km": 1.701456069765316 }, "geometry": { "type": "MultiLineString", "coordinates": [ [ [ 50.629276206230692, 26.320832602385238 ], [ 50.625008188775688, 26.319307215565377 ], [ 50.620787893194382, 26.317603728288276 ], [ 50.618226330258864, 26.314340378389133 ], [ 50.62091873081193, 26.312484823763821 ] ] ] } },
{ "type": "Feature", "properties": { "fid": 1, "start": null, "end": null, "cost": null, "id": null, "start_id": "A", "start_coordinates": "50.639641, 26.305162", "start_entry_cost": 6.0154705, "end_id": "B", "end_coordinates": "50.641141, 26.311116", "end_exit_cost": 3.7449484, "cost_on_graph": 699.707808, "total_cost": 709.468227, "layer": "13", "path": "C:\\Users\\Lenovo\\Desktop\\project\\13.geojson", "length_km": 0.70946822696038558 }, "geometry": { "type": "MultiLineString", "coordinates": [ [ [ 50.639641, 26.305162 ], [ 50.639697549847611, 26.305180712146576 ], [ 50.6396415, 26.3053501 ], [ 50.6396087, 26.3054655 ], [ 50.6395832, 26.3055786 ], [ 50.639553, 26.3057466 ], [ 50.6394813, 26.3062867 ], [ 50.6394625, 26.3066161 ], [ 50.6394706, 26.3069407 ], [ 50.6395095, 26.307387 ], [ 50.6395532, 26.3077561 ], [ 50.6396288, 26.3081669 ], [ 50.6396663, 26.3083737 ], [ 50.6397203, 26.3086154 ], [ 50.6397691, 26.3088664 ], [ 50.6398365, 26.3090908 ], [ 50.6399217, 26.3093102 ], [ 50.6400247, 26.3095234 ], [ 50.6401474, 26.3097261 ], [ 50.6402725, 26.3099276 ], [ 50.6404002, 26.3101279 ], [ 50.6407016, 26.3106013 ], [ 50.6410517, 26.3110641 ], [ 50.641113333268827, 26.311138820827143 ], [ 50.641141, 26.311116 ] ] ] } },
{ "type": "Feature", "properties": { "fid": 1, "start": null, "end": null, "cost": null, "id": null, "start_id": "A", "start_coordinates": "50.641579, 26.302188", "start_entry_cost": 8.737002, "end_id": "B", "end_coordinates": "50.637608, 26.299515", "end_exit_cost": 2.1853413, "cost_on_graph": 575.6681771, "total_cost": 586.5905203, "layer": "14", "path": "C:\\Users\\Lenovo\\Desktop\\project\\14.geojson", "length_km": 0.58659052034837977 }, "geometry": { "type": "MultiLineString", "coordinates": [ [ [ 50.641579, 26.302188 ], [ 50.641510976218534, 26.302138405210794 ], [ 50.6417464, 26.3018155 ], [ 50.6418731, 26.3016173 ], [ 50.64189, 26.3015663 ], [ 50.6418925, 26.30154 ], [ 50.6418909, 26.301493 ], [ 50.6418873, 26.3014572 ], [ 50.6418761, 26.3014181 ], [ 50.6418568, 26.3013898 ], [ 50.6418308, 26.3013684 ], [ 50.6411784, 26.3010338 ], [ 50.6409156, 26.3009132 ], [ 50.6406326, 26.3008002 ], [ 50.6404102, 26.3007211 ], [ 50.6399435, 26.3005697 ], [ 50.6396147, 26.300483 ], [ 50.6394934, 26.300451 ], [ 50.6393416, 26.3004052 ], [ 50.6391649, 26.3003504 ], [ 50.638868, 26.3002362 ], [ 50.6387242, 26.3001598 ], [ 50.6385355, 26.3000621 ], [ 50.6383541, 26.2999537 ], [ 50.6381626, 26.2998254 ], [ 50.6380905, 26.2997813 ], [ 50.6380154, 26.299744 ], [ 50.6379075, 26.2997056 ], [ 50.6378411, 26.2997194 ], [ 50.6377734, 26.2997121 ], [ 50.637719, 26.2996889 ], [ 50.6376749, 26.2996521 ], [ 50.6376451, 26.2996052 ], [ 50.6376325, 26.2995523 ], [ 50.6376333, 26.2995223 ], [ 50.637628489321415, 26.299508072191163 ], [ 50.637608, 26.299515 ] ] ] } },
{ "type": "Feature", "properties": { "fid": null, "start": null, "end": null, "cost": null, "id": null, "start_id": "A", "start_coordinates": "50.624795, 26.319127", "start_entry_cost": 2.5793642, "end_id": "B", "end_coordinates": "50.639575, 26.308013", "end_exit_cost": 2.5115062, "cost_on_graph": 2200.2120265, "total_cost": 2205.3028968, "layer": "15", "path": "C:\\Users\\Lenovo\\Desktop\\project\\15.geojson", "length_km": 2.2053028968407489 }, "geometry": { "type": "MultiLineString", "coordinates": [ [ [ 50.624795, 26.319127 ], [ 50.624819735661568, 26.319133714785163 ], [ 50.6248224, 26.3191239 ], [ 50.6248278, 26.3190799 ], [ 50.6248269, 26.3190356 ], [ 50.6248201, 26.3189914 ], [ 50.6247644, 26.3189307 ], [ 50.6247364, 26.3188563 ], [ 50.6247402, 26.3187759 ], [ 50.6247763, 26.3187023 ], [ 50.6248398, 26.3186455 ], [ 50.624923, 26.318613 ], [ 50.6249866, 26.3185198 ], [ 50.6250751, 26.3183923 ], [ 50.6251797, 26.3181567 ], [ 50.6253165, 26.317825 ], [ 50.6254695, 26.3174581 ], [ 50.6258451, 26.3165573 ], [ 50.6260499, 26.3160784 ], [ 50.626325, 26.3154207 ], [ 50.6267781, 26.314402 ], [ 50.6269681, 26.3139748 ], [ 50.6270008, 26.3139012 ], [ 50.6270528, 26.3137908 ], [ 50.6271048, 26.3136803 ], [ 50.6272412, 26.3134264 ], [ 50.6277353, 26.3126155 ], [ 50.6280869, 26.312194 ], [ 50.6283259, 26.3119027 ], [ 50.6284957, 26.3117138 ], [ 50.6287436, 26.3114575 ], [ 50.6290554, 26.3111574 ], [ 50.6293026, 26.3109303 ], [ 50.6298167, 26.3105395 ], [ 50.6302633, 26.3102043 ], [ 50.6306814, 26.3099488 ], [ 50.6308006, 26.3098768 ], [ 50.6308959, 26.3098192 ], [ 50.631069, 26.309725 ], [ 50.6311719, 26.3096761 ], [ 50.6313437, 26.3095883 ], [ 50.6317225, 26.3094151 ], [ 50.6318405, 26.3093611 ], [ 50.6321161, 26.3092397 ], [ 50.6324251, 26.3091036 ], [ 50.6325484, 26.3090522 ], [ 50.6330896, 26.3088268 ], [ 50.6334453, 26.3086975 ], [ 50.6335776, 26.3086531 ], [ 50.6340405, 26.3084978 ], [ 50.6343448, 26.308429 ], [ 50.6345165, 26.3083905 ], [ 50.6345862, 26.3083761 ], [ 50.6346573, 26.3083556 ], [ 50.6347123, 26.3083172 ], [ 50.6347682, 26.3082533 ], [ 50.6348458, 26.3081684 ], [ 50.6349196, 26.3081303 ], [ 50.6350029, 26.3081138 ], [ 50.6351071, 26.3081274 ], [ 50.63517, 26.3081505 ], [ 50.6352376, 26.308202 ], [ 50.6352587, 26.3082324 ], [ 50.6353775, 26.3082559 ], [ 50.6354579, 26.3082583 ], [ 50.635571, 26.3082581 ], [ 50.6362009, 26.3082535 ], [ 50.6370391, 26.3082547 ], [ 50.6379162, 26.308221 ], [ 50.639162, 26.3081116 ], [ 50.6393337, 26.3080563 ], [ 50.6394028, 26.3079856 ], [ 50.6394276, 26.3079601 ], [ 50.6395532, 26.3077561 ], [ 50.639599643008388, 26.308008464918611 ], [ 50.639575, 26.308013 ] ] ] } },
{ "type": "Feature", "properties": { "fid": null, "start": null, "end": null, "cost": null, "id": null, "start_id": "A", "start_coordinates": "50.641845, 26.301312", "start_entry_cost": 2.1499876, "end_id": "B", "end_coordinates": "50.642546, 26.300108", "end_exit_cost": 30.382914, "cost_on_graph": 166.8799141, "total_cost": 199.4128157, "layer": "sh210", "path": "C:\\Users\\Lenovo\\Desktop\\project\\sh210.geojson", "length_km": 0.19941281568798541 }, "geometry": { "type": "MultiLineString", "coordinates": [ [ [ 50.641845, 26.301312 ], [ 50.6418515, 26.3012935 ], [ 50.6418964, 26.3013048 ], [ 50.6419437, 26.3013092 ], [ 50.6419943, 26.3013031 ], [ 50.6420526, 26.3012794 ], [ 50.6421264, 26.3012341 ], [ 50.6422202, 26.3011547 ], [ 50.6423057, 26.301073 ], [ 50.6423879, 26.3009914 ], [ 50.6424821, 26.3008684 ], [ 50.6425423, 26.3007545 ], [ 50.6425845, 26.3006964 ], [ 50.6426347, 26.3006436 ], [ 50.6426922, 26.3005971 ], [ 50.6428175, 26.3002454 ], [ 50.642831745758627, 26.300202175966991 ], [ 50.642546, 26.300108 ] ] ] } },
{ "type": "Feature", "properties": { "fid": null, "start": null, "end": null, "cost": null, "id": null, "start_id": "A", "start_coordinates": "50.624795, 26.319127", "start_entry_cost": 2.5793642, "end_id": "B", "end_coordinates": "50.639575, 26.308013", "end_exit_cost": 2.5115062, "cost_on_graph": 2200.2120265, "total_cost": 2205.3028968, "layer": "sh211", "path": "C:\\Users\\Lenovo\\Desktop\\project\\sh211.geojson", "length_km": 2.2053028968407489 }, "geometry": { "type": "MultiLineString", "coordinates": [ [ [ 50.624795, 26.319127 ], [ 50.624819735661568, 26.319133714785163 ], [ 50.6248224, 26.3191239 ], [ 50.6248278, 26.3190799 ], [ 50.6248269, 26.3190356 ], [ 50.6248201, 26.3189914 ], [ 50.6247644, 26.3189307 ], [ 50.6247364, 26.3188563 ], [ 50.6247402, 26.3187759 ], [ 50.6247763, 26.3187023 ], [ 50.6248398, 26.3186455 ], [ 50.624923, 26.318613 ], [ 50.6249866, 26.3185198 ], [ 50.6250751, 26.3183923 ], [ 50.6251797, 26.3181567 ], [ 50.6253165, 26.317825 ], [ 50.6254695, 26.3174581 ], [ 50.6258451, 26.3165573 ], [ 50.6260499, 26.3160784 ], [ 50.626325, 26.3154207 ], [ 50.6267781, 26.314402 ], [ 50.6269681, 26.3139748 ], [ 50.6270008, 26.3139012 ], [ 50.6270528, 26.3137908 ], [ 50.6271048, 26.3136803 ], [ 50.6272412, 26.3134264 ], [ 50.6277353, 26.3126155 ], [ 50.6280869, 26.312194 ], [ 50.6283259, 26.3119027 ], [ 50.6284957, 26.3117138 ], [ 50.6287436, 26.3114575 ], [ 50.6290554, 26.3111574 ], [ 50.6293026, 26.3109303 ], [ 50.6298167, 26.3105395 ], [ 50.6302633, 26.3102043 ], [ 50.6306814, 26.3099488 ], [ 50.6308006, 26.3098768 ], [ 50.6308959, 26.3098192 ], [ 50.631069, 26.309725 ], [ 50.6311719, 26.3096761 ], [ 50.6313437, 26.3095883 ], [ 50.6317225, 26.3094151 ], [ 50.6318405, 26.3093611 ], [ 50.6321161, 26.3092397 ], [ 50.6324251, 26.3091036 ], [ 50.6325484, 26.3090522 ], [ 50.6330896, 26.3088268 ], [ 50.6334453, 26.3086975 ], [ 50.6335776, 26.3086531 ], [ 50.6340405, 26.3084978 ], [ 50.6343448, 26.308429 ], [ 50.6345165, 26.3083905 ], [ 50.6345862, 26.3083761 ], [ 50.6346573, 26.3083556 ], [ 50.6347123, 26.3083172 ], [ 50.6347682, 26.3082533 ], [ 50.6348458, 26.3081684 ], [ 50.6349196, 26.3081303 ], [ 50.6350029, 26.3081138 ], [ 50.6351071, 26.3081274 ], [ 50.63517, 26.3081505 ], [ 50.6352376, 26.308202 ], [ 50.6352587, 26.3082324 ], [ 50.6353775, 26.3082559 ], [ 50.6354579, 26.3082583 ], [ 50.635571, 26.3082581 ], [ 50.6362009, 26.3082535 ], [ 50.6370391, 26.3082547 ], [ 50.6379162, 26.308221 ], [ 50.639162, 26.3081116 ], [ 50.6393337, 26.3080563 ], [ 50.6394028, 26.3079856 ], [ 50.6394276, 26.3079601 ], [ 50.6395532, 26.3077561 ], [ 50.639599643008388, 26.308008464918611 ], [ 50.639575, 26.308013 ] ] ] } }
]
}
